{"type":"FeatureCollection","name":"monita_kecamatan_boundaries","source":"OpenStreetMap contributors via Nominatim lookup API, polygon_threshold=0.001","generated_at":"2026-06-06T03:54:07.091Z","features":[{"type":"Feature","properties":{"cluster":"DUMAI BENGKALIS","tap":"BENGKALIS","kecamatan":"BANTAN","key":"BANTAN|BENGKALIS","osm_id":10362143,"osm_type":"relation","display_name":"Bantan, Bengkalis, Riau, Sumatera, Indonesia","source":"OpenStreetMap contributors via Nominatim lookup","land_only":true,"land_clip_source":"Natural Earth 1:10m land polygons"},"geometry":{"type":"Polygon","coordinates":[[[102.504267,1.3074853],[102.4904453,1.3080405],[102.4566309,1.329832],[102.3940369,1.4393578],[102.3276622,1.4755561],[102.239461,1.4758295],[102.2121086,1.4873546],[102.1589442,1.4961711],[102.1428799,1.4947941],[102.1365981,1.4990702],[102.1323236,1.5223022],[102.1324191,1.5524572],[102.1101777,1.55255],[102.1093418,1.5913417],[102.11730469462184,1.6020671142048284],[102.120128,1.600735],[102.136241,1.589545],[102.152354,1.581122],[102.175059,1.575751],[102.237641,1.570258],[102.297862,1.558498],[102.328298,1.559272],[102.338145,1.558498],[102.348969,1.554633],[102.369151,1.542304],[102.379161,1.537991],[102.462657,1.515448],[102.490489,1.489691],[102.49586,1.441799],[102.49586,1.363593],[102.50778580404891,1.3114797168734686],[102.504267,1.3074853]]]}},{"type":"Feature","properties":{"cluster":"DUMAI BENGKALIS","tap":"BENGKALIS","kecamatan":"BENGKALIS","key":"BENGKALIS|BENGKALIS","osm_id":10362137,"osm_type":"relation","display_name":"Bengkalis, Riau, Sumatera, Indonesia","source":"OpenStreetMap contributors via Nominatim lookup","land_only":true,"land_clip_source":"Natural Earth 1:10m land polygons"},"geometry":{"type":"Polygon","coordinates":[[[102.1093418,1.5913417],[102.1101777,1.55255],[102.1324191,1.5524572],[102.1323236,1.5223022],[102.1365981,1.4990702],[102.1428799,1.4947941],[102.1589442,1.4961711],[102.2121086,1.4873546],[102.239461,1.4758295],[102.3276622,1.4755561],[102.3940369,1.4393578],[102.4566309,1.329832],[102.4904453,1.3080405],[102.504267,1.3074853],[102.50778580404891,1.3114797168734686],[102.511485,1.295315],[102.509532,1.277289],[102.47877,1.270738],[102.434744,1.29914],[102.372325,1.359849],[102.330251,1.413275],[102.314626,1.421332],[102.304698,1.423529],[102.285167,1.433336],[102.134532,1.455715],[102.095551,1.475246],[102.056977,1.510688],[102.026541,1.547675],[102.004405,1.585679],[102.007823,1.615383],[102.053722,1.627346],[102.072439,1.623236],[102.11730469462184,1.6020671142048284],[102.1093418,1.5913417]]]}},{"type":"Feature","properties":{"cluster":"DUMAI BENGKALIS","tap":"DUMAI","kecamatan":"BUKIT KAPUR","key":"BUKIT KAPUR|DUMAI","osm_id":10359435,"osm_type":"relation","display_name":"Bukit Kapur, Dumai, Riau, Sumatera, 28882, Indonesia","source":"OpenStreetMap contributors via Nominatim lookup","land_only":true,"land_clip_source":"Natural Earth 1:10m land polygons"},"geometry":{"type":"Polygon","coordinates":[[[101.3072707,1.5756869],[101.310435,1.5760374],[101.3132552,1.5824026],[101.3114503,1.5927529],[101.3147439,1.6037758],[101.3200211,1.6078674],[101.3268795,1.6103952],[101.3286808,1.6157004],[101.3345982,1.6162982],[101.340966,1.6147544],[101.352189,1.6152884],[101.3531019,1.6054804],[101.3720362,1.6054677],[101.3743299,1.6060411],[101.3763701,1.6093396],[101.3830536,1.6066001],[101.3888577,1.613405],[101.3900157,1.612058],[101.3918449,1.6127164],[101.3935994,1.6096234],[101.4005144,1.6147889],[101.4028773,1.6108776],[101.4093659,1.6108747],[101.4107411,1.6013492],[101.4197414,1.5934155],[101.4218534,1.5859561],[101.4250156,1.584178],[101.4296721,1.5862333],[101.4397,1.5945479],[101.4748328,1.5846357],[101.5261196,1.5861824],[101.5066432,1.493312],[101.4493252,1.49431],[101.4443284,1.4715861],[101.4356433,1.4471967],[101.4047041,1.4508921],[101.3780184,1.4581319],[101.3720781,1.4494742],[101.3664314,1.4515481],[101.3410368,1.4672212],[101.3174172,1.4747301],[101.3330344,1.4963405],[101.3139486,1.5268249],[101.3110487,1.5418271],[101.3079296,1.547073],[101.3038685,1.5714463],[101.3072707,1.5756869]]]}},{"type":"Feature","properties":{"cluster":"DUMAI BENGKALIS","tap":"DUMAI","kecamatan":"DUMAI BARAT","key":"DUMAI BARAT|DUMAI","osm_id":10359428,"osm_type":"relation","display_name":"Dumai Barat, Dumai, Riau, Sumatera, 28823, Indonesia","source":"OpenStreetMap contributors via Nominatim lookup","land_only":true,"land_clip_source":"Natural Earth 1:10m land polygons"},"geometry":{"type":"Polygon","coordinates":[[[101.4369553,1.6844903],[101.4351824,1.6838254],[101.4353809,1.6799459],[101.4295685,1.6763426],[101.4294988,1.6720636],[101.4322883,1.6698572],[101.4091454,1.6725807],[101.4028052,1.677212],[101.3832498,1.6556055],[101.347947,1.6528555],[101.3472494,1.6540492],[101.352584,1.6685682],[101.3542399,1.6787539],[101.3569545,1.6816328],[101.3571793,1.6869178],[101.3667365,1.6888213],[101.3702613,1.694863],[101.3698946,1.6977478],[101.3720592,1.6968256],[101.3734076,1.6980434],[101.3746023,1.6958088],[101.3761636,1.6988119],[101.3784228,1.6988237],[101.3802444,1.7016376],[101.3770034,1.7021933],[101.3806939,1.7057875],[101.3786239,1.706355],[101.3812498,1.7088969],[101.3800788,1.7123729],[101.3859338,1.716038],[101.3880984,1.7154942],[101.3864356,1.721751],[101.39896050432135,1.7348892747404854],[101.427013,1.709296],[101.44675137966522,1.7003434522800913],[101.4369553,1.6844903]]]}},{"type":"Feature","properties":{"cluster":"DUMAI BENGKALIS","tap":"DUMAI","kecamatan":"DUMAI KOTA","key":"DUMAI KOTA|DUMAI","osm_id":19560770,"osm_type":"relation","display_name":"Dumai Kota, Dumai, Riau, Sumatera, Indonesia","source":"OpenStreetMap contributors via Nominatim lookup","land_only":true,"land_clip_source":"Natural Earth 1:10m land polygons"},"geometry":{"type":"Polygon","coordinates":[[[101.4321354,1.6787743],[101.4353809,1.6799459],[101.4351824,1.6838254],[101.4369553,1.6844903],[101.4404062,1.6914971],[101.448612,1.6891604],[101.44928,1.6739553],[101.4472228,1.6644205],[101.4440463,1.6591266],[101.4415406,1.662086],[101.4418866,1.6647456],[101.4387873,1.6656331],[101.4357899,1.6691855],[101.4335637,1.668656],[101.4296088,1.6718759],[101.4289623,1.6745677],[101.4321354,1.6787743]]]}},{"type":"Feature","properties":{"cluster":"DUMAI BENGKALIS","tap":"DUMAI","kecamatan":"DUMAI SELATAN","key":"DUMAI SELATAN|DUMAI","osm_id":19560769,"osm_type":"relation","display_name":"Dumai Selatan, Dumai, Riau, Sumatera, Indonesia","source":"OpenStreetMap contributors via Nominatim lookup","land_only":true,"land_clip_source":"Natural Earth 1:10m land polygons"},"geometry":{"type":"Polygon","coordinates":[[[101.3384196,1.6235329],[101.336811,1.6281677],[101.3394368,1.6320222],[101.3400519,1.6370353],[101.3447359,1.6386078],[101.344523,1.6438515],[101.347947,1.6528555],[101.3832498,1.6556055],[101.4028052,1.677212],[101.4091454,1.6725807],[101.4357899,1.6691855],[101.4387873,1.6656331],[101.4418866,1.6647456],[101.4415137,1.6621718],[101.4433731,1.6593184],[101.4491972,1.6587149],[101.4512762,1.6504085],[101.4492597,1.6391364],[101.432251,1.6134092],[101.4233161,1.6052612],[101.4107411,1.6013492],[101.4093659,1.6108747],[101.4028773,1.6108776],[101.4005144,1.6147889],[101.3935994,1.6096234],[101.3918449,1.6127164],[101.3900157,1.612058],[101.3888577,1.613405],[101.3830536,1.6066001],[101.3763701,1.6093396],[101.3743299,1.6060411],[101.3720362,1.6054677],[101.3531019,1.6054804],[101.352189,1.6152884],[101.340966,1.6147544],[101.3345982,1.6162982],[101.3384196,1.6235329]]]}},{"type":"Feature","properties":{"cluster":"DUMAI BENGKALIS","tap":"DUMAI","kecamatan":"DUMAI TIMUR","key":"DUMAI TIMUR|DUMAI","osm_id":10359429,"osm_type":"relation","display_name":"Dumai Timur, Dumai, Riau, Sumatera, Indonesia","source":"OpenStreetMap contributors via Nominatim lookup","land_only":true,"land_clip_source":"Natural Earth 1:10m land polygons"},"geometry":{"type":"Polygon","coordinates":[[[101.4932594,1.6751019],[101.4857587,1.6667347],[101.481942,1.6587587],[101.480468,1.6456031],[101.4785988,1.6417952],[101.4708969,1.6329177],[101.4674439,1.6239374],[101.4556289,1.6086167],[101.4326689,1.5885299],[101.4250156,1.584178],[101.4218534,1.5859561],[101.4197414,1.5934155],[101.4107411,1.6013492],[101.4233161,1.6052612],[101.4310946,1.6119822],[101.4492597,1.6391364],[101.4512762,1.6504085],[101.4502132,1.6558055],[101.4491972,1.6587149],[101.4440463,1.6591266],[101.4472228,1.6644205],[101.44928,1.6739553],[101.448612,1.6891604],[101.4404062,1.6914971],[101.44643351163137,1.700487624638207],[101.494477,1.678697],[101.4948559923491,1.6786119002843383],[101.4932594,1.6751019]]]}},{"type":"Feature","properties":{"cluster":"DUMAI BENGKALIS","tap":"DUMAI","kecamatan":"MEDANG KAMPAI","key":"MEDANG KAMPAI|DUMAI","osm_id":10359432,"osm_type":"relation","display_name":"Medang Kampai, Dumai, Riau, Sumatera, 28825, Indonesia","source":"OpenStreetMap contributors via Nominatim lookup","land_only":true,"land_clip_source":"Natural Earth 1:10m land polygons"},"geometry":{"type":"Polygon","coordinates":[[[101.7272421,1.6664097],[101.7185305,1.6226878],[101.7058311,1.6217301],[101.6778725,1.6154246],[101.642167,1.6098627],[101.6242543,1.5886233],[101.632872,1.5786547],[101.6363736,1.5679441],[101.6422977,1.5622175],[101.6434624,1.5532688],[101.6406806,1.5478603],[101.6182727,1.545496],[101.6156077,1.5519047],[101.6195891,1.5527161],[101.610511,1.5776837],[101.611111,1.5796127],[101.6028409,1.5948259],[101.5975694,1.6003212],[101.5744849,1.5965078],[101.5280854,1.5955561],[101.5261196,1.5861824],[101.4748328,1.5846357],[101.4397,1.5945479],[101.457388,1.6104187],[101.4674439,1.6239374],[101.4708969,1.6329177],[101.480468,1.6456031],[101.4813469,1.6573466],[101.4838093,1.662794],[101.4932594,1.6751019],[101.4948559923491,1.6786119002843383],[101.529633,1.670803],[101.567393,1.655911],[101.591563,1.65469],[101.673513,1.669501],[101.711681,1.671129],[101.7269551043365,1.667219275510623],[101.7272421,1.6664097]]]}},{"type":"Feature","properties":{"cluster":"DUMAI BENGKALIS","tap":"DUMAI","kecamatan":"SUNGAI SEMBILAN","key":"SUNGAI SEMBILAN|DUMAI","osm_id":10359427,"osm_type":"relation","display_name":"Sungai Sembilan, Dumai, Riau, Sumatera, 28826, Indonesia","source":"OpenStreetMap contributors via Nominatim lookup","land_only":true,"land_clip_source":"Natural Earth 1:10m land polygons"},"geometry":{"type":"Polygon","coordinates":[[[101.3864356,1.721751],[101.3880984,1.7154942],[101.3859338,1.716038],[101.3800788,1.7123729],[101.3812498,1.7088969],[101.3786239,1.706355],[101.3806939,1.7057875],[101.3770034,1.7021933],[101.3802444,1.7016376],[101.3784228,1.6988237],[101.3761636,1.6988119],[101.3746023,1.6958088],[101.3734076,1.6980434],[101.3720592,1.6968256],[101.3698946,1.6977478],[101.3702613,1.694863],[101.3667365,1.6888213],[101.3571793,1.6869178],[101.3569545,1.6816328],[101.3542399,1.6787539],[101.352584,1.6685682],[101.3484263,1.659145],[101.3475688,1.6493257],[101.344523,1.6438515],[101.3447359,1.6386078],[101.3400519,1.6370353],[101.3394368,1.6320222],[101.336811,1.6281677],[101.3381239,1.6228708],[101.3345982,1.6162982],[101.3286808,1.6157004],[101.3268795,1.6103952],[101.3200211,1.6078674],[101.3147439,1.6037758],[101.3114503,1.5927529],[101.3132552,1.5824026],[101.310435,1.5760374],[101.3072707,1.5756869],[101.3038685,1.5714463],[101.2999658,1.588604],[101.2929659,1.5980938],[101.2838276,1.6174872],[101.2814092,1.6261731],[101.2817784,1.6316208],[101.2714704,1.6470107],[101.2696208,1.6549098],[101.2637385,1.6613987],[101.2529067,1.6814513],[101.241986,1.6942649],[101.2029302,1.7528292],[101.1299488,1.8407551],[101.1260799,1.851623],[101.1210663,1.8576407],[101.117078,1.8696904],[101.1129258,1.872328],[101.1083201,1.8817797],[101.0985522,1.8920184],[101.0880934,1.9075257],[101.0879887,1.9104651],[101.084533,1.9158035],[101.0790193,1.9192938],[101.0730804,1.9290987],[101.0602366,1.9550782],[101.0540062,1.9939194],[101.0326343,2.0445753],[101.0258612,2.0650346],[101.018712,2.0755368],[101.0186055,2.0905812],[101.012846,2.0981955],[101.0092922,2.1236014],[101.0127745,2.1447798],[101.0181467,2.1637131],[101.0364432,2.2157594],[101.0500844,2.2432782],[101.0545407,2.2673744],[101.05816486436292,2.2722730869917975],[101.056488,2.241156],[101.067393,2.219794],[101.181814,2.145006],[101.299978,2.046617],[101.317149,2.024604],[101.325857,2.002183],[101.326996,1.981269],[101.323416,1.938951],[101.326671,1.916449],[101.351329,1.860093],[101.36677226226526,1.8090784162285376],[101.3635612,1.7979688],[101.3659162,1.7810212],[101.3734521,1.7584241],[101.39542893626576,1.73991527234502],[101.397309,1.736396],[101.39896050432135,1.7348892747404854],[101.3864356,1.721751]]]}},{"type":"Feature","properties":{"cluster":"DUMAI BENGKALIS","tap":"DURI","kecamatan":"BATHIN SOLAPAN","key":"BATHIN SOLAPAN|DURI","osm_id":19390302,"osm_type":"relation","display_name":"Bathin Solapan, Bengkalis, Riau, Sumatera, 28821, Indonesia","source":"OpenStreetMap contributors via Nominatim lookup","land_only":true,"land_clip_source":"Natural Earth 1:10m land polygons"},"geometry":{"type":"Polygon","coordinates":[[[100.9352406,1.2802478],[100.9475406,1.35122],[100.9541733,1.3489907],[100.9712618,1.3484345],[100.9748489,1.3499787],[100.9951234,1.3515048],[101.0113957,1.350696],[101.0153253,1.351925],[101.0280064,1.3605675],[101.0569089,1.3736018],[101.0748409,1.384328],[101.07924,1.3904711],[101.1022919,1.4038753],[101.1135928,1.4138814],[101.1204859,1.413467],[101.1237332,1.4171369],[101.1369138,1.4191652],[101.1512182,1.4321436],[101.1684815,1.4416123],[101.2410218,1.4656189],[101.2705538,1.4684192],[101.2955547,1.4735215],[101.3172666,1.4747793],[101.3410368,1.4672212],[101.3664314,1.4515481],[101.3720781,1.4494742],[101.3780184,1.4581319],[101.4047041,1.4508921],[101.4356433,1.4471967],[101.4603045,1.4169605],[101.4654638,1.401508],[101.4730379,1.3932742],[101.4655002,1.3740832],[101.4452922,1.3950747],[101.4137326,1.3653796],[101.383102,1.3639131],[101.3834118,1.3581239],[101.338139,1.3558942],[101.2687741,1.3370607],[101.2244144,1.3371928],[101.228897,1.3287705],[101.2295676,1.3021787],[101.2058761,1.3014133],[101.2058272,1.3031728],[101.1986513,1.3031962],[101.1874553,1.3013112],[101.1882917,1.3042367],[101.1796114,1.3069993],[101.1781637,1.3049298],[101.1793308,1.3029096],[101.1785848,1.2974773],[101.1815111,1.2987273],[101.1841232,1.2952319],[101.1852463,1.2916389],[101.1841065,1.2877225],[101.1830179,1.287105],[101.1793345,1.2911668],[101.1782164,1.2886027],[101.173426,1.2892619],[101.1676654,1.2930762],[101.1610657,1.2871802],[101.1606908,1.280845],[101.1569773,1.2783176],[101.1571772,1.2643217],[101.1377235,1.2638311],[101.1360999,1.2491717],[101.1366788,1.2381178],[101.1315594,1.2337303],[101.129802,1.2265537],[101.1181523,1.2088669],[101.0852156,1.1960266],[101.083996,1.1931992],[101.0604147,1.1826742],[101.0610202,1.1798487],[101.0492533,1.1705068],[101.0405934,1.1609619],[100.9325891,1.2484831],[100.9352406,1.2802478]]]}},{"type":"Feature","properties":{"cluster":"DUMAI BENGKALIS","tap":"DURI","kecamatan":"MANDAU","key":"MANDAU|DURI","osm_id":10362059,"osm_type":"relation","display_name":"Mandau, Bengkalis, Riau, Sumatera, Indonesia","source":"OpenStreetMap contributors via Nominatim lookup","land_only":true,"land_clip_source":"Natural Earth 1:10m land polygons"},"geometry":{"type":"Polygon","coordinates":[[[101.0492533,1.1705068],[101.0610202,1.1798487],[101.0604147,1.1826742],[101.083996,1.1931992],[101.0852156,1.1960266],[101.1181523,1.2088669],[101.129802,1.2265537],[101.1315594,1.2337303],[101.1366788,1.2381178],[101.1360999,1.2491717],[101.1377235,1.2638311],[101.1571772,1.2643217],[101.1569773,1.2783176],[101.1606908,1.280845],[101.1610657,1.2871802],[101.1676654,1.2930762],[101.173426,1.2892619],[101.1782164,1.2886027],[101.1793345,1.2911668],[101.1830179,1.287105],[101.1841065,1.2877225],[101.1852463,1.2916389],[101.1841232,1.2952319],[101.1815111,1.2987273],[101.1785848,1.2974773],[101.1793308,1.3029096],[101.1781637,1.3049298],[101.1796114,1.3069993],[101.1882917,1.3042367],[101.1874553,1.3013112],[101.1986513,1.3031962],[101.2058272,1.3031728],[101.2058761,1.3014133],[101.2295676,1.3021787],[101.228897,1.3287705],[101.2244144,1.3371928],[101.2687741,1.3370607],[101.338139,1.3558942],[101.3834118,1.3581239],[101.383102,1.3639131],[101.4137326,1.3653796],[101.4108061,1.3583622],[101.4118471,1.344829],[101.4030728,1.3391778],[101.3966495,1.3389541],[101.3931041,1.3368126],[101.3817292,1.3141177],[101.3880095,1.2931358],[101.379752,1.2565418],[101.3782648,1.2566181],[101.37819,1.2546244],[101.3751919,1.2548147],[101.3746776,1.2422968],[101.3710777,1.2406835],[101.3704567,1.2313927],[101.3673102,1.2301624],[101.3669728,1.2261035],[101.3630752,1.2243831],[101.3633893,1.2187633],[101.3581511,1.2145907],[101.3537986,1.2203024],[101.3499855,1.2200228],[101.3434515,1.2224784],[101.3346784,1.228496],[101.3269618,1.2386183],[101.3132704,1.2438436],[101.3032267,1.2450357],[101.3000145,1.2427942],[101.297359,1.2437365],[101.2890071,1.2415736],[101.278171,1.2425444],[101.2748517,1.2395748],[101.2679809,1.2386189],[101.2516399,1.2424617],[101.2408669,1.2507541],[101.2357927,1.2499748],[101.2328529,1.2531219],[101.2140859,1.2542778],[101.2183015,1.2431656],[101.2166454,1.2401942],[101.2195807,1.2290211],[101.1985588,1.2184226],[101.1958623,1.204882],[101.1735787,1.1949733],[101.1608322,1.1940613],[101.141911,1.1765549],[101.1361457,1.1664335],[101.1402912,1.1487553],[101.1354407,1.1485962],[101.1353224,1.146544],[101.1042968,1.1458348],[101.0659309,1.1412852],[101.0405934,1.1609619],[101.0492533,1.1705068]]]}},{"type":"Feature","properties":{"cluster":"DUMAI BENGKALIS","tap":"DURI","kecamatan":"PINGGIR","key":"PINGGIR|DURI","osm_id":10362068,"osm_type":"relation","display_name":"Pinggir, Bengkalis, Riau, Sumatera, Indonesia","source":"OpenStreetMap contributors via Nominatim lookup","land_only":true,"land_clip_source":"Natural Earth 1:10m land polygons"},"geometry":{"type":"Polygon","coordinates":[[[101.1042968,1.1458348],[101.1353224,1.146544],[101.1354407,1.1485962],[101.1402912,1.1487553],[101.1361457,1.1664335],[101.141911,1.1765549],[101.1608322,1.1940613],[101.1735787,1.1949733],[101.1958623,1.204882],[101.1985588,1.2184226],[101.2195807,1.2290211],[101.2166454,1.2401942],[101.2183015,1.2431656],[101.2133435,1.2540636],[101.2200068,1.2536603],[101.2209522,1.2547947],[101.2213196,1.2535797],[101.2328529,1.2531219],[101.2357927,1.2499748],[101.2405516,1.2508731],[101.2516399,1.2424617],[101.2670291,1.2387616],[101.2748517,1.2395748],[101.278171,1.2425444],[101.2890071,1.2415736],[101.297359,1.2437365],[101.3000145,1.2427942],[101.3035622,1.2450357],[101.3132704,1.2438436],[101.3269618,1.2386183],[101.3335934,1.2294312],[101.3410102,1.2238632],[101.3492003,1.2202191],[101.3537986,1.2203024],[101.3610364,1.2103337],[101.3625367,1.2018616],[101.3600266,1.1972212],[101.3559685,1.1963928],[101.3931849,1.1619077],[101.3876169,1.1588906],[101.3877597,1.156197],[101.3901106,1.1551976],[101.3885259,1.1497258],[101.3852517,1.1448012],[101.3843481,1.1401714],[101.381482,1.1382742],[101.3894547,1.139145],[101.3818019,1.1297627],[101.3859652,1.1239154],[101.3862432,1.1110727],[101.379339,1.1025035],[101.3813173,1.0857906],[101.3505486,1.086042],[101.3501463,1.0819074],[101.3521848,1.0753285],[101.3514008,1.0599383],[101.35412,1.0579272],[101.3549837,1.0532267],[101.3531542,1.0517215],[101.3565632,1.0300162],[101.3536237,1.0326832],[101.3511987,1.0327525],[101.3398136,1.0281547],[101.3319119,1.0349954],[101.3265311,1.0355988],[101.3215931,1.0416357],[101.3163137,1.0420211],[101.3101157,1.0465912],[101.3054004,1.0449553],[101.2977982,1.0474573],[101.2961709,1.0511438],[101.2909162,1.0499031],[101.2884349,1.0528953],[101.2883,1.0570009],[101.2823908,1.060398],[101.2780431,1.0538848],[101.2744955,1.0442106],[101.2665353,1.0368245],[101.2608409,1.0342355],[101.2508764,1.0212693],[101.2366882,1.013642],[101.2305141,1.0068689],[101.0659309,1.1412852],[101.1042968,1.1458348]]]}},{"type":"Feature","properties":{"cluster":"DUMAI BENGKALIS","tap":"DURI","kecamatan":"TALANG MUANDAU","key":"TALANG MUANDAU|DURI","osm_id":19390301,"osm_type":"relation","display_name":"Talang Muandau, Bengkalis, Riau, Sumatera, 28824, Indonesia","source":"OpenStreetMap contributors via Nominatim lookup","land_only":true,"land_clip_source":"Natural Earth 1:10m land polygons"},"geometry":{"type":"Polygon","coordinates":[[[101.3505486,1.086042],[101.3813173,1.0857906],[101.379339,1.1025035],[101.3862432,1.1110727],[101.3859652,1.1239154],[101.3818019,1.1297627],[101.3894547,1.139145],[101.381482,1.1382742],[101.3843481,1.1401714],[101.3852517,1.1448012],[101.3885259,1.1497258],[101.3901106,1.1551976],[101.3877597,1.156197],[101.3876169,1.1588906],[101.3931849,1.1619077],[101.3559685,1.1963928],[101.3600266,1.1972212],[101.3621776,1.2005599],[101.3613029,1.2097626],[101.3581511,1.2145907],[101.3633893,1.2187633],[101.3629682,1.2242332],[101.3669728,1.2261035],[101.3673102,1.2301624],[101.3703582,1.2311853],[101.3710777,1.2406835],[101.3746776,1.2422968],[101.3751919,1.2548147],[101.37819,1.2546244],[101.3782648,1.2566181],[101.379752,1.2565418],[101.3880095,1.2931358],[101.3817292,1.3141177],[101.3931041,1.3368126],[101.3966495,1.3389541],[101.4030728,1.3391778],[101.4118471,1.344829],[101.4108061,1.3583622],[101.4137326,1.3653796],[101.4452922,1.3950747],[101.4604091,1.378447],[101.4762786,1.3648446],[101.4963594,1.3533499],[101.5621811,1.3556123],[101.5936506,1.3508816],[101.6292348,1.3323696],[101.64191,1.2967043],[101.6758687,1.2260394],[101.6888929,1.2115457],[101.7053467,1.2007785],[101.6565305,1.1312368],[101.6348645,1.0889546],[101.5989017,1.0337746],[101.547509,0.9217506],[101.5249522,0.9306523],[101.5224151,0.9354366],[101.5202833,0.9487247],[101.5182625,0.9514192],[101.4977845,0.9596789],[101.4891046,0.9663349],[101.4776532,0.9712427],[101.4743332,0.9759098],[101.4559532,0.9848593],[101.4576853,1.0008336],[101.4537399,1.0051639],[101.4398826,1.0073772],[101.4334833,1.0160861],[101.4225076,1.0139581],[101.4163543,1.0228223],[101.4087521,1.0218599],[101.401234,1.0233996],[101.391623,1.0208014],[101.3682871,1.0270083],[101.3654964,1.0322047],[101.3600113,1.0292216],[101.3565632,1.0300162],[101.3531542,1.0517215],[101.3549837,1.0532267],[101.35412,1.0579272],[101.3514008,1.0599383],[101.3521848,1.0753285],[101.3501463,1.0819074],[101.3505486,1.086042]]]}},{"type":"Feature","properties":{"cluster":"DUMAI BENGKALIS","tap":"RUPAT","kecamatan":"RUPAT","key":"RUPAT|RUPAT","osm_id":10362147,"osm_type":"relation","display_name":"Rupat, Bengkalis, Riau, Sumatera, Indonesia","source":"OpenStreetMap contributors via Nominatim lookup","land_only":true,"land_clip_source":"Natural Earth 1:10m land polygons"},"geometry":{"type":"MultiPolygon","coordinates":[[[[101.5780668,1.9283806],[101.591433,1.9423366],[101.633495,1.9785555],[101.6589673,2.0038177],[101.6559345,2.0080187],[101.7127184,2.0206275],[101.7060879,2.0323813],[101.7098434,2.0327846],[101.7139559,2.0303199],[101.7189351,2.032132],[101.7231489,2.03613],[101.7208002,2.0382959],[101.7148306,2.0393529],[101.7118512,2.0431356],[101.7113141,2.0465956],[101.7215075,2.044489],[101.7266232338572,2.0511954901828746],[101.757986,2.011298],[101.770274,1.985053],[101.775564,1.947984],[101.767751,1.925605],[101.73585,1.887681],[101.72877,1.863227],[101.732432,1.817939],[101.729177,1.799058],[101.715099,1.778225],[101.66627,1.74494],[101.659841,1.733466],[101.649425,1.722235],[101.625255,1.714423],[101.597504,1.710028],[101.577322,1.709296],[101.53061,1.718166],[101.490733,1.736762],[101.460134,1.76553],[101.440684,1.804877],[101.430349,1.850287],[101.422211,1.872992],[101.397146,1.909369],[101.393809,1.930609],[101.40326396547704,1.9964072768447598],[101.5780668,1.9283806]]],[[[101.3734521,1.7584241],[101.3659162,1.7810212],[101.3635612,1.7979688],[101.36677226226526,1.8090784162285376],[101.377615,1.773261],[101.3954290852445,1.739914993473226],[101.3734521,1.7584241]]]]}},{"type":"Feature","properties":{"cluster":"DUMAI BENGKALIS","tap":"RUPAT","kecamatan":"RUPAT UTARA","key":"RUPAT UTARA|RUPAT","osm_id":10362128,"osm_type":"relation","display_name":"Rupat Utara, Bengkalis, Riau, Sumatera, Indonesia","source":"OpenStreetMap contributors via Nominatim lookup","land_only":true,"land_clip_source":"Natural Earth 1:10m land polygons"},"geometry":{"type":"Polygon","coordinates":[[[101.7215075,2.044489],[101.7113141,2.0465956],[101.7118512,2.0431356],[101.7148306,2.0393529],[101.7208002,2.0382959],[101.7231489,2.03613],[101.7189351,2.032132],[101.7139559,2.0303199],[101.7098434,2.0327846],[101.7060879,2.0323813],[101.7127184,2.0206275],[101.6559345,2.0080187],[101.6589673,2.0038177],[101.633495,1.9785555],[101.591433,1.9423366],[101.5780668,1.9283806],[101.40326396547704,1.9964072768447598],[101.405772,2.013861],[101.418142,2.04442],[101.440929,2.064927],[101.478282,2.072414],[101.495779,2.068834],[101.531016,2.056464],[101.550548,2.058092],[101.566417,2.067939],[101.615082,2.117092],[101.649262,2.128485],[101.681651,2.108954],[101.707205,2.078803],[101.721202,2.058092],[101.7266232338572,2.0511954901828746],[101.7215075,2.044489]]]}},{"type":"Feature","properties":{"cluster":"DUMAI BENGKALIS","tap":"SEI PAKNING","kecamatan":"BUKIT BATU","key":"BUKIT BATU|SEI PAKNING","osm_id":10362093,"osm_type":"relation","display_name":"Bukit Batu, Bengkalis, Riau, Sumatera, 28761, Indonesia","source":"OpenStreetMap contributors via Nominatim lookup","land_only":true,"land_clip_source":"Natural Earth 1:10m land polygons"},"geometry":{"type":"MultiPolygon","coordinates":[[[[102.1728377,1.2276316],[102.172342,1.2076852],[102.1633332,1.1910487],[102.162007,1.1907908],[102.1596548,1.1951165],[102.1642827,1.2113313],[102.1640973,1.2317694],[102.1632185285277,1.2341734431502183],[102.173106,1.230902],[102.17476139079533,1.229308452547242],[102.1728377,1.2276316]]],[[[102.1414578,1.2772468],[102.1149492,1.2728352],[102.1147211,1.2892248],[102.111136,1.2985669],[102.0424779,1.2971716],[101.776032,1.2968648],[101.7858986,1.301871],[101.7928034,1.3089935],[101.7927206,1.3117642],[101.7853742,1.3171241],[101.7843939,1.3237118],[101.785994,1.3272042],[101.7939381,1.3300366],[101.7959063,1.3325846],[101.7938865,1.3373361],[101.7881813,1.3382965],[101.7857399,1.3407291],[101.7863101,1.3434532],[101.7927916,1.3483417],[101.788013,1.3570223],[101.7881944,1.3598327],[101.7966762,1.3616427],[101.7985931,1.3607795],[101.8011708,1.3557094],[101.8056768,1.356222],[101.8081869,1.3593976],[101.8076356,1.3651585],[101.814212,1.3663093],[101.8164556,1.364699],[101.8163742,1.3591353],[101.8185092,1.3559508],[101.8225523,1.3539744],[101.8289293,1.3543313],[101.8322367,1.3614697],[101.8315467,1.3670376],[101.8249318,1.3688222],[101.8225523,1.373129],[101.822814,1.3754609],[101.8282392,1.3809099],[101.8328316,1.3822186],[101.838685,1.3794584],[101.8462993,1.3800295],[101.8515579,1.3832655],[101.8541991,1.3896901],[101.8582442,1.3914271],[101.8720868,1.3933935],[101.8784167,1.3880667],[101.882334,1.3903737],[101.8878525,1.3888719],[101.8898609,1.3902108],[101.8900689,1.3953403],[101.8921859,1.3973849],[101.8953228,1.3976397],[101.8982959,1.3956195],[101.9037782,1.3965761],[101.9063837,1.398557],[101.9073151,1.4052008],[101.9163668,1.4098642],[101.9264616,1.4195346],[101.9231415,1.4276205],[101.9323227,1.4401181],[101.9316266,1.4453231],[101.9329878,1.4495483],[101.9305453,1.4552443],[101.9322586,1.4603054],[101.9312391,1.4663057],[101.945191,1.4698219],[101.9466493,1.4686539],[101.9459882,1.4673041],[101.9484721,1.4672001],[101.9493083,1.4632408],[101.9559848,1.4632004],[101.9598032,1.4648462],[101.9606807,1.4630497],[101.9684762,1.4616553],[101.9679196,1.4650318],[101.9747092,1.4743808],[101.9757007524321,1.4767988818255464],[102.021495,1.437893],[102.118175,1.386542],[102.143321,1.357733],[102.153331,1.311469],[102.14766412950117,1.2772517431915043],[102.1414578,1.2772468]]]]}},{"type":"Feature","properties":{"cluster":"DUMAI BENGKALIS","tap":"SEI PAKNING","kecamatan":"SIAK KECIL","key":"SIAK KECIL|SEI PAKNING","osm_id":10362076,"osm_type":"relation","display_name":"Siak Kecil, Bengkalis, Riau, Sumatera, 28725, Indonesia","source":"OpenStreetMap contributors via Nominatim lookup","land_only":true,"land_clip_source":"Natural Earth 1:10m land polygons"},"geometry":{"type":"Polygon","coordinates":[[[102.1640973,1.2317694],[102.1642827,1.2113313],[102.1596548,1.1951165],[102.162007,1.1907908],[102.1462819,1.1866712],[102.1426109,1.180601],[102.1318678,1.1769341],[102.1098001,1.1474117],[102.107215,1.1374677],[102.0946131,1.1253231],[102.061908,1.076994],[102.03318,1.0383076],[102.0113135,1.0125367],[101.9930815,0.9952152],[101.968996,0.9604729],[101.9377371,0.9588575],[101.9146839,0.9625189],[101.9093582,0.9595693],[101.9019274,0.9470519],[101.8405747,0.9468569],[101.8784148,1.0142842],[101.8841554,1.0430884],[101.8834808,1.0683186],[101.8739288,1.0998691],[101.8636377,1.1196836],[101.8503308,1.1382031],[101.8138435,1.1689218],[101.7404881,1.1927742],[101.7052546,1.2006241],[101.6888929,1.2115457],[101.6820802,1.2179577],[101.6725291,1.231917],[101.64191,1.2967043],[102.0424779,1.2971716],[102.111136,1.2985669],[102.1147211,1.2892248],[102.1149492,1.2728352],[102.1414578,1.2772468],[102.14766412950117,1.2772517431915043],[102.146983,1.273139],[102.147227,1.247789],[102.156749,1.236314],[102.1632185285277,1.2341734431502183],[102.1640973,1.2317694]]]}},{"type":"Feature","properties":{"cluster":"ROKAN HILIR","tap":"BAGAN BATU","kecamatan":"BAGANSINEMBAH","key":"BAGANSINEMBAH|BAGAN BATU","osm_id":10356088,"osm_type":"relation","display_name":"Bagan Sinembah, Rokan Hilir, Riau, Sumatera, Indonesia","source":"OpenStreetMap contributors via Nominatim lookup","land_only":true,"land_clip_source":"Natural Earth 1:10m land polygons"},"geometry":{"type":"Polygon","coordinates":[[[100.3383284,1.7104539],[100.3461149,1.7230637],[100.3523362,1.7377811],[100.353963,1.7774842],[100.3874787,1.7767104],[100.3903161,1.7596401],[100.3886509,1.7566623],[100.3958419,1.7566569],[100.3958354,1.731688],[100.399476,1.7317265],[100.3993504,1.7375484],[100.4043458,1.7393238],[100.4038734,1.7304027],[100.3983639,1.7275125],[100.376314,1.7283288],[100.3762885,1.7192548],[100.3983661,1.7193361],[100.4020685,1.7225274],[100.4058546,1.7225191],[100.406524,1.7173079],[100.4159527,1.7128164],[100.4183712,1.7081243],[100.423204,1.7041992],[100.4224921,1.7002787],[100.4466172,1.6902028],[100.4464988,1.6965709],[100.4418252,1.7112807],[100.4456058,1.7106269],[100.4477833,1.7080422],[100.4862819,1.698945],[100.4852537,1.675702],[100.4935044,1.6743506],[100.4959058,1.6708035],[100.4928312,1.6676667],[100.4897118,1.6596931],[100.4925166,1.6558972],[100.4915269,1.6425166],[100.4964698,1.6331302],[100.4950102,1.6331375],[100.4950069,1.6287874],[100.4861608,1.6081628],[100.4884424,1.608003],[100.487466,1.605862],[100.4921953,1.6022572],[100.4995446,1.6046208],[100.5021965,1.6008466],[100.5049143,1.6023581],[100.5050079,1.6002642],[100.5076532,1.6002443],[100.5086963,1.5958665],[100.511197,1.6012726],[100.512624,1.5984097],[100.5144939,1.5997351],[100.5286216,1.5969833],[100.5349332,1.5974976],[100.5349026,1.5793587],[100.5206497,1.5788093],[100.5159399,1.5763289],[100.4798834,1.576016],[100.4573722,1.57386],[100.4571011,1.5783777],[100.4527051,1.5837],[100.4403841,1.5817514],[100.4409219,1.5729102],[100.4236514,1.571277],[100.4177387,1.5658847],[100.4114965,1.5656497],[100.4114116,1.5719613],[100.4080254,1.5755532],[100.4064803,1.5822114],[100.4113064,1.5880665],[100.4120126,1.5946685],[100.4147495,1.5986137],[100.4183192,1.6005462],[100.4210014,1.6077958],[100.4167706,1.6116345],[100.4183969,1.6166833],[100.4176124,1.6185849],[100.4132312,1.6228313],[100.4112132,1.6222725],[100.4082416,1.6247005],[100.4098015,1.6313918],[100.4077322,1.6352486],[100.4125703,1.6420589],[100.4127895,1.6469867],[100.4164061,1.6534955],[100.4162924,1.6602792],[100.4176179,1.6616074],[100.4176776,1.6650395],[100.4145344,1.6675389],[100.4143548,1.6709831],[100.4116357,1.6736244],[100.4085647,1.6732169],[100.4087058,1.6707797],[100.4053105,1.667487],[100.4010612,1.6663641],[100.3935978,1.6719042],[100.3930672,1.6740307],[100.390118,1.674624],[100.3689702,1.6670052],[100.3431966,1.679138],[100.3306755,1.6785502],[100.3203046,1.6804957],[100.3190515,1.6900395],[100.3383284,1.7104539]]]}},{"type":"Feature","properties":{"cluster":"ROKAN HILIR","tap":"BAGAN BATU","kecamatan":"BANGKO PUSAKO","key":"BANGKO PUSAKO|BAGAN BATU","osm_id":10356320,"osm_type":"relation","display_name":"Bangko Pusako, Rokan Hilir, Riau, Sumatera, 28993, Indonesia","source":"OpenStreetMap contributors via Nominatim lookup","land_only":true,"land_clip_source":"Natural Earth 1:10m land polygons"},"geometry":{"type":"MultiPolygon","coordinates":[[[[100.9313947,1.8295406],[100.9274304,1.8165066],[100.9282164,1.8118338],[100.9436976,1.7972657],[100.9536462,1.7946618],[100.9583626,1.7973148],[100.9627597,1.8048316],[100.9725599,1.8059093],[100.9726287,1.7962356],[100.9654351,1.781052],[100.9627345,1.7639696],[100.9601999,1.7596081],[100.950901,1.7545263],[100.9422188,1.7417284],[100.949301,1.729117],[100.9323014,1.7185515],[100.9375076,1.7113099],[100.9323817,1.7094456],[100.9531466,1.6899793],[100.9550156,1.679649],[100.9543112,1.6660557],[100.9618874,1.6591364],[100.9498059,1.6466832],[100.947563,1.6414627],[100.9388892,1.6375718],[100.9344282,1.631918],[100.9106773,1.6113703],[100.9167162,1.6057259],[100.9095805,1.5951066],[100.8962407,1.5895549],[100.8813415,1.5721205],[100.8720639,1.5685489],[100.8260164,1.5566568],[100.7951397,1.5505338],[100.7841038,1.5497222],[100.710447,1.5532488],[100.6849936,1.5517627],[100.6527929,1.5522129],[100.6527987,1.576272],[100.6554764,1.5789613],[100.6729117,1.5751283],[100.6726911,1.6636378],[100.6831287,1.6637289],[100.6868145,1.6729286],[100.6892707,1.9245709],[100.7053632,1.9244306],[100.7054509,1.9263419],[100.7321672,1.9437122],[100.8211026,1.8848864],[100.8305453,1.8884482],[100.8385276,1.8801271],[100.8453082,1.888534],[100.8546638,1.8831296],[100.8577323,1.8859604],[100.860967,1.8835692],[100.8626354,1.8847809],[100.8719617,1.8720147],[100.8892325,1.8840937],[100.8951583621466,1.8895777936439961],[100.895518,1.886217],[100.9019027755454,1.8682603167751093],[100.8938769,1.8677279],[100.8907909,1.8661557],[100.8871226,1.8601001],[100.886715,1.8531129],[100.8885783,1.8504926],[100.8953326,1.8468825],[100.9046878,1.8444467],[100.91614882544958,1.8438498010247666],[100.923106,1.834947],[100.9310108307808,1.8318197351292476],[100.9313947,1.8295406]]],[[[100.8916032,1.9075779],[100.8892061,1.9149586],[100.8895839,1.9266719],[100.8898730227497,1.9268344310791397],[100.8921,1.918158],[100.89344541086932,1.9055852180874173],[100.8916032,1.9075779]]]]}},{"type":"Feature","properties":{"cluster":"ROKAN HILIR","tap":"BAGAN BATU","kecamatan":"KUBU","key":"KUBU|BAGAN BATU","osm_id":10356315,"osm_type":"relation","display_name":"Kubu, Rokan Hilir, Riau, Sumatera, 28991, Indonesia","source":"OpenStreetMap contributors via Nominatim lookup","land_only":true,"land_clip_source":"Natural Earth 1:10m land polygons"},"geometry":{"type":"Polygon","coordinates":[[[100.6519039,2.1252968],[100.6455923,2.1080921],[100.6457949,2.1007395],[100.6484556,2.0941779],[100.6616199,2.0799609],[100.667038,2.0775163],[100.6775522,2.076873],[100.6833243,2.0691426],[100.6827396,2.0648592],[100.6746393,2.0622163],[100.6703961,2.0660064],[100.6689423,2.071035],[100.6645757,2.0727612],[100.6585729,2.070188],[100.6560141,2.0663871],[100.6528115,2.0651004],[100.6489438,2.0653042],[100.6484234,2.0691265],[100.6390572,2.06799],[100.6410259,2.0630901],[100.6389123,2.0621519],[100.6380057,2.065138],[100.636416,2.0648074],[100.6338054,2.056732],[100.6337898,2.0510266],[100.6250526,2.0559241],[100.6181334,2.0529811],[100.6210166,2.0488192],[100.6192625,2.0456455],[100.6236345,2.0457688],[100.626487,2.0314574],[100.6222612,2.0362423],[100.6231409,2.0396948],[100.6188869,2.0388692],[100.6159204,2.0316586],[100.6159696,2.0279633],[100.610693,2.0242748],[100.6019459,2.0215855],[100.5934162,2.0155239],[100.5848751,2.0171604],[100.5670719,2.0156155],[100.5542698,2.0201321],[100.5415554,2.0163174],[100.518362,2.0159473],[100.4935055,2.0132542],[100.4897099,2.019743],[100.4882793,2.0278451],[100.4864654,2.0277879],[100.4590983,1.9976147],[100.4422065,1.945147],[100.4346821,1.9417241],[100.4248788,1.9456194],[100.4245866,1.9515996],[100.4180514,1.9545951],[100.4115495,1.953679],[100.4070578,1.9566974],[100.4031945,1.9567014],[100.3989463,1.9658733],[100.388226,1.9741055],[100.4035314,2.0039424],[100.4162203,2.0331891],[100.4487684,2.0773057],[100.5107033,2.1700736],[100.52610045766168,2.1843650341339123],[100.561046,2.156806],[100.617849,2.129055],[100.63769926285384,2.131277375311647],[100.6519039,2.1252968]]]}},{"type":"Feature","properties":{"cluster":"ROKAN HILIR","tap":"BAGAN BATU","kecamatan":"KUBU BABUSSALAM","key":"KUBU BABUSSALAM|BAGAN BATU","osm_id":19103382,"osm_type":"relation","display_name":"Kubu Babussalam, Rokan Hilir, Riau, Sumatera, 28990, Indonesia","source":"OpenStreetMap contributors via Nominatim lookup","land_only":true,"land_clip_source":"Natural Earth 1:10m land polygons"},"geometry":{"type":"MultiPolygon","coordinates":[[[[100.6900803,2.1161312],[100.6907002,2.0773564],[100.6952986,2.0714014],[100.698079,2.0466934],[100.7023611,2.0317091],[100.70265,2.0243985],[100.6989274,2.0201036],[100.6989226,2.0097244],[100.7268078,1.9713446],[100.7320834,1.9435507],[100.7054509,1.9263419],[100.7053632,1.9244306],[100.6077196,1.9248282],[100.6066614,1.9277261],[100.6086449,1.9395157],[100.6140093,1.9436815],[100.6116061,1.9529431],[100.6168324,1.9589934],[100.6112963,1.9710964],[100.6150782,1.9780915],[100.6108698,1.983509],[100.6044754,1.980303],[100.600774,1.9757272],[100.6003395,1.9721619],[100.592836,1.9692977],[100.5910604,1.9668945],[100.5909128,1.9617638],[100.5876888,1.959122],[100.5875882,1.9571504],[100.5817169,1.9578728],[100.5766958,1.9534444],[100.5712067,1.9546386],[100.5696952,1.9578139],[100.5682938,1.9577897],[100.5670821,1.953874],[100.5627309,1.9519788],[100.5518787,1.9515666],[100.5500521,1.9460351],[100.5444476,1.946401],[100.5426566,1.944686],[100.538469,1.9473526],[100.5290021,1.9456718],[100.5231807,1.9418067],[100.51973,1.9414086],[100.5162207,1.9378369],[100.4737003,1.9368679],[100.4586661,1.940457],[100.4530107,1.9447169],[100.4422065,1.945147],[100.4590983,1.9976147],[100.4864654,2.0277879],[100.4882793,2.0278451],[100.4897099,2.019743],[100.4935055,2.0132542],[100.518362,2.0159473],[100.5415554,2.0163174],[100.5542698,2.0201321],[100.5670719,2.0156155],[100.5848751,2.0171604],[100.5934162,2.0155239],[100.6019459,2.0215855],[100.610693,2.0242748],[100.6159696,2.0279633],[100.6159204,2.0316586],[100.6188869,2.0388692],[100.6231409,2.0396948],[100.6222612,2.0362423],[100.626487,2.0314574],[100.6236345,2.0457688],[100.6192625,2.0456455],[100.6210166,2.0488192],[100.6181334,2.0529811],[100.6250526,2.0559241],[100.6337898,2.0510266],[100.6338054,2.056732],[100.636416,2.0648074],[100.6380057,2.065138],[100.6389123,2.0621519],[100.6410259,2.0630901],[100.6390572,2.06799],[100.6484234,2.0691265],[100.6489438,2.0653042],[100.6528115,2.0651004],[100.6638086,2.0728309],[100.6689423,2.071035],[100.6703961,2.0660064],[100.673604,2.0625647],[100.6832385,2.0654972],[100.6833243,2.0691426],[100.6787109,2.0758759],[100.6757873,2.0775324],[100.667038,2.0775163],[100.6616199,2.0799609],[100.6465566,2.0976088],[100.6455923,2.1080921],[100.6519039,2.1252968],[100.63769926285384,2.131277375311647],[100.666189,2.134467],[100.69025261065416,2.1176382951043493],[100.6900803,2.1161312]]],[[[100.632823,2.230292],[100.645518,2.227729],[100.66212,2.217556],[100.66684,2.212063],[100.67864,2.182929],[100.678559,2.169827],[100.628591,2.208238],[100.624034,2.215928],[100.62322,2.225002],[100.632823,2.230292]]]]}},{"type":"Feature","properties":{"cluster":"ROKAN HILIR","tap":"BAGAN BATU","kecamatan":"SIMPANG KANAN","key":"SIMPANG KANAN|BAGAN BATU","osm_id":10356094,"osm_type":"relation","display_name":"Simpang Kanan, Rokan Hilir, Riau, Sumatera, 28994, Indonesia","source":"OpenStreetMap contributors via Nominatim lookup","land_only":true,"land_clip_source":"Natural Earth 1:10m land polygons"},"geometry":{"type":"Polygon","coordinates":[[[100.281297,1.8339601],[100.2799811,1.8423307],[100.2815073,1.8651077],[100.2884768,1.8733854],[100.289267,1.8767899],[100.2921767,1.8788761],[100.3050725,1.8822907],[100.3111585,1.8927975],[100.3107838,1.8996779],[100.3144002,1.9096131],[100.3133031,1.9440113],[100.3146174,1.97571],[100.3881543,1.9743282],[100.3989463,1.9658733],[100.4031945,1.9567014],[100.4070578,1.9566974],[100.4115495,1.953679],[100.4180514,1.9545951],[100.4245866,1.9515996],[100.4248788,1.9456194],[100.4346821,1.9417241],[100.4353012,1.9083635],[100.440945,1.9026754],[100.4588487,1.87553],[100.4757425,1.870277],[100.4712945,1.8632676],[100.4553508,1.8506517],[100.4441527,1.8470716],[100.4392478,1.8473748],[100.4395785,1.8420661],[100.4280763,1.8226921],[100.420186,1.8167224],[100.4175382,1.8125894],[100.4159061,1.8038349],[100.4019113,1.789344],[100.3964565,1.7871927],[100.3930217,1.787857],[100.3912699,1.7859247],[100.3886359,1.786588],[100.3950871,1.7765534],[100.3536064,1.7774924],[100.3534448,1.7822259],[100.3305811,1.7846489],[100.2961558,1.7912281],[100.2842979,1.8007171],[100.2776766,1.8134798],[100.281297,1.8339601]]]}},{"type":"Feature","properties":{"cluster":"ROKAN HILIR","tap":"BAGAN SIAPI-API","kecamatan":"BANGKO","key":"BANGKO|BAGAN SIAPI API","osm_id":10356332,"osm_type":"relation","display_name":"Bangko, Rokan Hilir, Riau, Sumatera, Indonesia","source":"OpenStreetMap contributors via Nominatim lookup","land_only":true,"land_clip_source":"Natural Earth 1:10m land polygons"},"geometry":{"type":"Polygon","coordinates":[[[100.8721389,2.2757363],[100.871677,2.2702464],[100.8663623,2.2638478],[100.8683198,2.2533218],[100.8662707,2.2411073],[100.8766465,2.220022],[100.8771074,2.2147344],[100.8820003,2.2093253],[100.8855564,2.2017615],[100.8863712,2.1948576],[100.8902714,2.1906215],[100.8944978,2.1745208],[100.9046819,2.1565544],[100.927076,2.1044145],[100.955404,2.0963509],[101.0152197,2.0961482],[101.0186055,2.0905812],[101.018712,2.0755368],[101.0258612,2.0650346],[101.0326343,2.0445753],[101.0491927,2.0044617],[100.9743829,2.0010451],[100.9039188,2.0008096],[100.90148308826511,2.000171194809601],[100.885509,2.036322],[100.823497,2.115953],[100.803233,2.161811],[100.799978,2.20893],[100.812755,2.249823],[100.841156,2.280829],[100.86643706791448,2.290688390561107],[100.8721389,2.2757363]]]}},{"type":"Feature","properties":{"cluster":"ROKAN HILIR","tap":"BAGAN SIAPI-API","kecamatan":"BATU HAMPAR","key":"BATU HAMPAR|BAGAN SIAPI API","osm_id":10356089,"osm_type":"relation","display_name":"Batu Hampar, Rokan Hilir, Riau, Sumatera, Indonesia","source":"OpenStreetMap contributors via Nominatim lookup","land_only":true,"land_clip_source":"Natural Earth 1:10m land polygons"},"geometry":{"type":"Polygon","coordinates":[[[100.9039188,2.0008096],[100.9743829,2.0010451],[101.0491927,2.0044617],[101.0552608,1.9885794],[101.0602366,1.9550782],[101.0790193,1.9192938],[101.084533,1.9158035],[101.0879887,1.9104651],[101.0880934,1.9075257],[101.0954847,1.8972423],[100.9920915,1.8984186],[100.9442006,1.8973785],[100.94095137150295,1.8969107157646128],[100.937022,1.904527],[100.924083,1.922756],[100.915782,1.944729],[100.905772,1.990465],[100.90148308826511,2.000171194809601],[100.9039188,2.0008096]]]}},{"type":"Feature","properties":{"cluster":"ROKAN HILIR","tap":"BAGAN SIAPI-API","kecamatan":"PASIR LIMAU KAPAS","key":"PASIR LIMAU KAPAS|BAGAN SIAPI API","osm_id":10356308,"osm_type":"relation","display_name":"Pasir Limau Kapas, Rokan Hilir, Riau, Sumatera, 28995, Indonesia","source":"OpenStreetMap contributors via Nominatim lookup","land_only":true,"land_clip_source":"Natural Earth 1:10m land polygons"},"geometry":{"type":"Polygon","coordinates":[[[100.5107033,2.1700736],[100.4487684,2.0773057],[100.4143948,2.0303561],[100.4035314,2.0039424],[100.3882308,1.9741706],[100.3145955,1.9757107],[100.3164557,1.9980848],[100.3155396,2.0524122],[100.3304646,2.0959393],[100.3367056,2.1222347],[100.3635885,2.1688749],[100.3651169,2.2107595],[100.3593575,2.2117306],[100.3499827,2.2305916],[100.3353588,2.2534246],[100.3335656,2.2639447],[100.3278076,2.2759192],[100.3173638,2.2897116],[100.3130555,2.310027],[100.3026208,2.3339753],[100.3008236,2.340143],[100.3015565,2.352837],[100.2993963,2.3564661],[100.2954461,2.4213313],[100.2967794,2.4369198],[100.2996315,2.4460802],[100.3001261,2.4607511],[100.3060909,2.4752418],[100.307102,2.4912657],[100.3156196,2.5156693],[100.3158822,2.5226651],[100.31946538277164,2.537455409615715],[100.381684,2.355048],[100.405284,2.31269],[100.434337,2.273342],[100.507335,2.199164],[100.52610045766168,2.1843650341339123],[100.5107033,2.1700736]]]}},{"type":"Feature","properties":{"cluster":"ROKAN HILIR","tap":"BAGAN SIAPI-API","kecamatan":"PEKAITAN","key":"PEKAITAN|BAGAN SIAPI API","osm_id":10356327,"osm_type":"relation","display_name":"Pekaitan, Rokan Hilir, Riau, Sumatera, 28913, Indonesia","source":"OpenStreetMap contributors via Nominatim lookup","land_only":true,"land_clip_source":"Natural Earth 1:10m land polygons"},"geometry":{"type":"Polygon","coordinates":[[[100.8927935,1.8869984],[100.8719617,1.8720147],[100.8626354,1.8847809],[100.860967,1.8835692],[100.8577323,1.8859604],[100.8546638,1.8831296],[100.8453082,1.888534],[100.8385276,1.8801271],[100.8305453,1.8884482],[100.8211026,1.8848864],[100.7321672,1.9437122],[100.7268078,1.9713446],[100.6989226,2.0097244],[100.6989274,2.0201036],[100.70265,2.0243985],[100.7023611,2.0317091],[100.698079,2.0466934],[100.6952986,2.0714014],[100.6907002,2.0773564],[100.6900803,2.1161312],[100.69025261065416,2.1176382951043493],[100.789073,2.048529],[100.812755,2.03974],[100.832286,2.016303],[100.840831,2.010972],[100.855724,1.999213],[100.872406,1.971991],[100.886241,1.940985],[100.8898730227497,1.9268344310791397],[100.8895839,1.9266719],[100.8902728,1.9100549],[100.89335220405272,1.9064562300620558],[100.89518674512371,1.8893125564667652],[100.8927935,1.8869984]]]}},{"type":"Feature","properties":{"cluster":"ROKAN HILIR","tap":"BAGAN SIAPI-API","kecamatan":"SINABOI","key":"SINABOI|BAGAN SIAPI API","osm_id":10356326,"osm_type":"relation","display_name":"Sinaboi, Rokan Hilir, Riau, Sumatera, 28914, Indonesia","source":"OpenStreetMap contributors via Nominatim lookup","land_only":true,"land_clip_source":"Natural Earth 1:10m land polygons"},"geometry":{"type":"MultiPolygon","coordinates":[[[[101.0553268,2.2690627],[101.0523481,2.2607325],[101.0500844,2.2432782],[101.0364432,2.2157594],[101.0127745,2.1447798],[101.0093237,2.1198697],[101.012846,2.0981955],[101.014803,2.0961748],[100.955404,2.0963509],[100.927076,2.1044145],[100.9046819,2.1565544],[100.8944978,2.1745208],[100.8902714,2.1906215],[100.8863712,2.1948576],[100.8855564,2.2017615],[100.8820003,2.2093253],[100.8771074,2.2147344],[100.8766465,2.220022],[100.8662707,2.2411073],[100.8683198,2.2533218],[100.8663623,2.2638478],[100.871677,2.2702464],[100.8721389,2.2757363],[100.86643706791448,2.290688390561107],[100.885916,2.298285],[100.907888,2.299506],[101.050304,2.29149],[101.058604,2.280422],[101.0582382013092,2.2736339794927467],[101.0553268,2.2690627]]],[[[100.994965,2.319892],[101.010997,2.323025],[101.033783,2.321763],[101.042735,2.31977],[101.034028,2.310289],[101.016775,2.30565],[100.998871,2.307522],[100.980479,2.305243],[100.977224,2.317857],[100.994965,2.319892]]]]}},{"type":"Feature","properties":{"cluster":"ROKAN HILIR","tap":"UJUNG TANJUNG","kecamatan":"PUJUD","key":"PUJUD|UJUNG TANJUNG","osm_id":10355983,"osm_type":"relation","display_name":"Pujud, Rokan Hilir, Riau, Sumatera, 28983, Indonesia","source":"OpenStreetMap contributors via Nominatim lookup","land_only":true,"land_clip_source":"Natural Earth 1:10m land polygons"},"geometry":{"type":"Polygon","coordinates":[[[100.5694726,1.2807392],[100.5695781,1.2976805],[100.5506536,1.2978837],[100.5467215,1.3023914],[100.5468148,1.3042201],[100.5489101,1.3064779],[100.5476134,1.3083258],[100.5494169,1.3164881],[100.5566704,1.3391042],[100.5591929,1.3427876],[100.5572981,1.3484211],[100.5583811,1.3617187],[100.5641932,1.3721959],[100.5643876,1.3862221],[100.5625102,1.3896434],[100.5810586,1.405854],[100.581923,1.419074],[100.5881719,1.433259],[100.5881539,1.4348096],[100.578744,1.4385172],[100.5812641,1.4550323],[100.5789074,1.4656998],[100.5723586,1.473627],[100.5743303,1.4779011],[100.5732611,1.4808893],[100.5673425,1.4899755],[100.5641111,1.5083575],[100.5651328,1.5240575],[100.5636184,1.5259968],[100.5643336,1.531052],[100.5687296,1.5349638],[100.5687005,1.543449],[100.569934,1.5428043],[100.570793,1.5454451],[100.5782919,1.5450083],[100.5834292,1.5464539],[100.5875763,1.5504178],[100.5924379,1.5637394],[100.587586,1.5634379],[100.5881979,1.5706595],[100.585851,1.5766577],[100.6033039,1.5746268],[100.6527983,1.5745906],[100.6527929,1.5522129],[100.6849936,1.5517627],[100.710447,1.5532488],[100.7839771,1.5496274],[100.7833876,1.4229885],[100.7868479,1.4213933],[100.7910629,1.4063885],[100.7948043,1.4068249],[100.802215,1.4128638],[100.8051286,1.4111781],[100.8060682,1.4075192],[100.80488,1.4049174],[100.7963457,1.398759],[100.7904128,1.4005591],[100.7878929,1.3934788],[100.7899659,1.3910172],[100.7946938,1.3903883],[100.7975771,1.3862657],[100.8051684,1.3882187],[100.8068937,1.3842423],[100.8048954,1.3802852],[100.7996002,1.3823983],[100.7974465,1.3816831],[100.7985769,1.3576775],[100.8013297,1.3529596],[100.8007572,1.3238327],[100.8026827,1.3185607],[100.8034741,1.2683503],[100.7967899,1.262146],[100.7939137,1.2477233],[100.7859732,1.2432903],[100.7676719,1.2419712],[100.7559864,1.2426448],[100.7454046,1.245315],[100.7279848,1.243995],[100.7059356,1.2444533],[100.6999834,1.2462326],[100.6935926,1.2520069],[100.6713423,1.2833138],[100.6642909,1.2906423],[100.6575637,1.2878725],[100.6540318,1.2818826],[100.6535838,1.2710081],[100.6476201,1.2550325],[100.6407815,1.2501543],[100.6282012,1.2312974],[100.6209201,1.2239779],[100.6167298,1.2226488],[100.607249,1.2242081],[100.6026199,1.2268742],[100.5893974,1.2401987],[100.5684565,1.2528621],[100.5565538,1.2613032],[100.5459753,1.271741],[100.5297874,1.2812304],[100.5694726,1.2807392]]]}},{"type":"Feature","properties":{"cluster":"ROKAN HILIR","tap":"UJUNG TANJUNG","kecamatan":"RANTAU KOPAR","key":"RANTAU KOPAR|UJUNG TANJUNG","osm_id":10355986,"osm_type":"relation","display_name":"Rantau Kopar, Rokan Hilir, Riau, Sumatera, 28984, Indonesia","source":"OpenStreetMap contributors via Nominatim lookup","land_only":true,"land_clip_source":"Natural Earth 1:10m land polygons"},"geometry":{"type":"Polygon","coordinates":[[[100.9553358,1.3773571],[100.9562435,1.384842],[100.9516253,1.3872277],[100.9495996,1.3908587],[100.9543381,1.397433],[100.9528759,1.4004965],[100.9549244,1.4247663],[100.9597102,1.4367923],[100.9658758,1.438718],[100.9850664,1.4405248],[100.989135,1.4380722],[101.0272388,1.4370183],[101.0525958,1.4500555],[101.0659895,1.462695],[101.1077445,1.4483721],[101.1232997,1.4397537],[101.1355267,1.43025],[101.1400427,1.4232738],[101.1369138,1.4191652],[101.1237332,1.4171369],[101.1204859,1.413467],[101.1135928,1.4138814],[101.1022919,1.4038753],[101.07924,1.3904711],[101.0748409,1.384328],[101.0569089,1.3736018],[101.0280064,1.3605675],[101.0134898,1.3512204],[100.9951234,1.3515048],[100.9748489,1.3499787],[100.9712618,1.3484345],[100.9541733,1.3489907],[100.9475406,1.35122],[100.9553358,1.3773571]]]}},{"type":"Feature","properties":{"cluster":"ROKAN HILIR","tap":"UJUNG TANJUNG","kecamatan":"RIMBA MELINTANG","key":"RIMBA MELINTANG|UJUNG TANJUNG","osm_id":10356057,"osm_type":"relation","display_name":"Rimba Melintang, Rokan Hilir, Riau, Sumatera, 28953, Indonesia","source":"OpenStreetMap contributors via Nominatim lookup","land_only":true,"land_clip_source":"Natural Earth 1:10m land polygons"},"geometry":{"type":"MultiPolygon","coordinates":[[[[100.9442006,1.8973785],[100.9920915,1.8984186],[101.095535,1.8972522],[101.0985522,1.8920184],[101.1083201,1.8817797],[101.1129258,1.872328],[101.117078,1.8696904],[101.1210663,1.8576407],[101.1260799,1.851623],[101.1299488,1.8407551],[101.1454318,1.8222246],[101.1176179,1.8023099],[101.1133984,1.7953351],[101.0940515,1.7846008],[101.0856375,1.7821553],[101.0687899,1.7806788],[101.0545691,1.7766257],[101.0470952,1.7722554],[101.0329939,1.7396449],[101.0277318,1.7163431],[101.0182162,1.7083862],[101.0127031,1.7002736],[101.0064549,1.6955479],[100.9887627,1.6764598],[100.9617258,1.659284],[100.9543112,1.6660557],[100.9550156,1.679649],[100.9531466,1.6899793],[100.9323817,1.7094456],[100.9375076,1.7113099],[100.9323014,1.7185515],[100.949301,1.729117],[100.9422188,1.7417284],[100.950901,1.7545263],[100.9601999,1.7596081],[100.9627345,1.7639696],[100.9654351,1.781052],[100.9726287,1.7962356],[100.9725599,1.8059093],[100.9627597,1.8048316],[100.9583626,1.7973148],[100.9536462,1.7946618],[100.9436976,1.7972657],[100.9282164,1.8118338],[100.9274304,1.8165066],[100.9313947,1.8295406],[100.9310108307808,1.8318197351292476],[100.947276,1.825385],[100.941905,1.841864],[100.946056,1.861314],[100.948253,1.882758],[100.94095137150295,1.8969107157646128],[100.9442006,1.8973785]]],[[[100.9046878,1.8444467],[100.8953326,1.8468825],[100.8885783,1.8504926],[100.8864821,1.8561407],[100.8907909,1.8661557],[100.8938769,1.8677279],[100.9019027755454,1.8682603167751093],[100.905935,1.85692],[100.91614882544958,1.8438498010247666],[100.9046878,1.8444467]]]]}},{"type":"Feature","properties":{"cluster":"ROKAN HILIR","tap":"UJUNG TANJUNG","kecamatan":"TANAH PUTIH","key":"TANAH PUTIH|UJUNG TANJUNG","osm_id":10356008,"osm_type":"relation","display_name":"Tanah Putih, Rokan Hilir, Riau, Sumatera, 28985, Indonesia","source":"OpenStreetMap contributors via Nominatim lookup","land_only":true,"land_clip_source":"Natural Earth 1:10m land polygons"},"geometry":{"type":"Polygon","coordinates":[[[100.7835713,1.5497469],[100.7951397,1.5505338],[100.8223836,1.5558243],[100.8813415,1.5721205],[100.8962407,1.5895549],[100.9095805,1.5951066],[100.9167162,1.6057259],[100.9109285,1.6116469],[100.9344282,1.631918],[100.9388892,1.6375718],[100.947563,1.6414627],[100.9498059,1.6466832],[100.9617258,1.659284],[100.9807926,1.6717082],[101.0104821,1.6546426],[101.0470499,1.6445395],[101.0561007,1.6436411],[101.0710872,1.6338333],[101.0803302,1.6414096],[101.0863209,1.6421561],[101.0880053,1.6407941],[101.091068,1.6310619],[101.0898404,1.6216345],[101.0914694,1.6162286],[101.097511,1.6115322],[101.1103803,1.6081272],[101.1150985,1.6097022],[101.1216617,1.6178758],[101.1357156,1.629022],[101.1473302,1.6255348],[101.1622604,1.6277696],[101.1702817,1.6271779],[101.1946343,1.6354592],[101.2071402,1.6364134],[101.2247713,1.6434137],[101.2696208,1.6549098],[101.2714704,1.6470107],[101.2817784,1.6316208],[101.2814092,1.6261731],[101.2846601,1.6153308],[101.2929659,1.5980938],[101.2999658,1.588604],[101.3079296,1.547073],[101.3110487,1.5418271],[101.3139486,1.5268249],[101.3330344,1.4963405],[101.3174172,1.4747301],[101.2955547,1.4735215],[101.2705538,1.4684192],[101.2410218,1.4656189],[101.1684815,1.4416123],[101.1512182,1.4321436],[101.1400427,1.4232738],[101.1355267,1.43025],[101.1232997,1.4397537],[101.1077445,1.4483721],[101.0659895,1.462695],[101.0525958,1.4500555],[101.0272388,1.4370183],[100.989135,1.4380722],[100.9850664,1.4405248],[100.9658758,1.438718],[100.9597102,1.4367923],[100.9549244,1.4247663],[100.9535561,1.4057132],[100.9519598,1.4013341],[100.9464342,1.398003],[100.9374389,1.3959461],[100.931918,1.3978563],[100.901951,1.3816397],[100.8655224,1.3563389],[100.8564538,1.3453695],[100.8295921,1.3236058],[100.8159901,1.307742],[100.8064129,1.2888353],[100.8032903,1.2756723],[100.8026827,1.3185607],[100.8007572,1.3238327],[100.8013297,1.3529596],[100.7985769,1.3576775],[100.7974465,1.3816831],[100.7996002,1.3823983],[100.8048954,1.3802852],[100.8068937,1.3842423],[100.8051684,1.3882187],[100.7975771,1.3862657],[100.7946938,1.3903883],[100.7899659,1.3910172],[100.7878929,1.3934788],[100.7904128,1.4005591],[100.7971092,1.3990853],[100.8056003,1.4056592],[100.8060417,1.4083374],[100.8029973,1.4129469],[100.7942641,1.4065587],[100.7904261,1.4067737],[100.7868479,1.4213933],[100.7833876,1.4229885],[100.7835713,1.5497469]]]}},{"type":"Feature","properties":{"cluster":"ROKAN HILIR","tap":"UJUNG TANJUNG","kecamatan":"TANAH PUTIH TANJUNG MELAWAN","key":"TANAH PUTIH TANJUNG MELAWAN|UJUNG TANJUNG","osm_id":10356020,"osm_type":"relation","display_name":"Tanah Putih Tanjung Melawan, Rokan Hilir, Riau, Sumatera, 28986, Indonesia","source":"OpenStreetMap contributors via Nominatim lookup","land_only":true,"land_clip_source":"Natural Earth 1:10m land polygons"},"geometry":{"type":"Polygon","coordinates":[[[100.9887627,1.6764598],[101.0064549,1.6955479],[101.0127031,1.7002736],[101.0182162,1.7083862],[101.0277318,1.7163431],[101.0329939,1.7396449],[101.0470952,1.7722554],[101.0545691,1.7766257],[101.0687899,1.7806788],[101.0856375,1.7821553],[101.0940515,1.7846008],[101.1133984,1.7953351],[101.1176179,1.8023099],[101.1454318,1.8222246],[101.2029302,1.7528292],[101.241986,1.6942649],[101.2529067,1.6814513],[101.2562452,1.6738126],[101.2689271,1.6546688],[101.2247713,1.6434137],[101.2071402,1.6364134],[101.1946343,1.6354592],[101.1702817,1.6271779],[101.1622604,1.6277696],[101.1473302,1.6255348],[101.1357156,1.629022],[101.1216617,1.6178758],[101.1150985,1.6097022],[101.1103803,1.6081272],[101.097511,1.6115322],[101.0914694,1.6162286],[101.0898404,1.6216345],[101.091068,1.6310619],[101.0880053,1.6407941],[101.0863209,1.6421561],[101.0803302,1.6414096],[101.0710872,1.6338333],[101.0561007,1.6436411],[101.0470499,1.6445395],[101.0104821,1.6546426],[100.9807926,1.6717082],[100.9887627,1.6764598]]]}},{"type":"Feature","properties":{"cluster":"ROKAN HILIR","tap":"UJUNG TANJUNG","kecamatan":"TANJUNG MEDAN","key":"TANJUNG MEDAN|UJUNG TANJUNG","osm_id":19319166,"osm_type":"relation","display_name":"Tanjung Medan, Rokan Hilir, Riau, Sumatera, Indonesia","source":"OpenStreetMap contributors via Nominatim lookup","land_only":true,"land_clip_source":"Natural Earth 1:10m land polygons"},"geometry":{"type":"Polygon","coordinates":[[[100.277201,1.474738],[100.286827,1.475297],[100.2908627,1.4677825],[100.300112,1.467177],[100.3152024,1.4695927],[100.322152,1.47384],[100.3221182,1.4655452],[100.319806,1.461694],[100.3197649,1.4558581],[100.3174091,1.4508558],[100.3189368,1.4476778],[100.3485246,1.4541474],[100.376576,1.449791],[100.387722,1.4615],[100.3966854,1.4663517],[100.4045925,1.4677826],[100.4218427,1.4853603],[100.4248787,1.4920587],[100.4277407,1.505362],[100.434456,1.5204335],[100.4207591,1.5281714],[100.4157687,1.5353836],[100.4152553,1.5406481],[100.4120947,1.5465812],[100.4144127,1.5544002],[100.4100395,1.5625513],[100.4077661,1.5628574],[100.405792,1.5680522],[100.4065407,1.569785],[100.4040715,1.5782179],[100.4056435,1.5807667],[100.4114116,1.5719613],[100.4114965,1.5656497],[100.4177387,1.5658847],[100.4236514,1.571277],[100.4409219,1.5729102],[100.4403841,1.5817514],[100.4527051,1.5837],[100.4571011,1.5783777],[100.4573722,1.57386],[100.4798834,1.576016],[100.5159399,1.5763289],[100.5206497,1.5788093],[100.5349026,1.5793587],[100.535027,1.6004407],[100.5364531,1.5992527],[100.5655118,1.599234],[100.5652025,1.5768203],[100.5711402,1.5753011],[100.585851,1.5766577],[100.5881979,1.5706595],[100.587586,1.5634379],[100.5924379,1.5637394],[100.586463,1.548486],[100.5782919,1.5450083],[100.570793,1.5454451],[100.569934,1.5428043],[100.5687005,1.543449],[100.5687296,1.5349638],[100.5643336,1.531052],[100.5636184,1.5259968],[100.5651328,1.5240575],[100.5641111,1.5083575],[100.5673425,1.4899755],[100.5732611,1.4808893],[100.5743303,1.4779011],[100.5723586,1.473627],[100.5789074,1.4656998],[100.5812641,1.4550323],[100.578744,1.4385172],[100.5881539,1.4348096],[100.581923,1.419074],[100.5810586,1.405854],[100.5625102,1.3896434],[100.5643876,1.3862221],[100.5641932,1.3721959],[100.5583811,1.3617187],[100.5572981,1.3484211],[100.5591929,1.3427876],[100.5566704,1.3391042],[100.5494169,1.3164881],[100.5476134,1.3083258],[100.5489101,1.3064779],[100.5468148,1.3042201],[100.5467215,1.3023914],[100.5506536,1.2978837],[100.5695781,1.2976805],[100.5694726,1.2807392],[100.5297874,1.2812304],[100.504488,1.3005873],[100.4918889,1.3067779],[100.4523085,1.3376716],[100.4555445,1.340357],[100.4607802,1.3416988],[100.4617013,1.3386287],[100.4643512,1.3415433],[100.4656866,1.3391475],[100.4672705,1.3418313],[100.4683163,1.3402697],[100.4699885,1.3414315],[100.4707399,1.3387725],[100.4732127,1.3414858],[100.4748486,1.3403785],[100.4792509,1.3414829],[100.4799297,1.3400796],[100.480334,1.3423675],[100.4790267,1.3444934],[100.4731148,1.3440538],[100.4689831,1.3466191],[100.4597197,1.3453383],[100.4590257,1.3493864],[100.4608545,1.3548363],[100.4578659,1.3686921],[100.4563376,1.3699374],[100.4546189,1.3688501],[100.449218,1.3719717],[100.4484237,1.3768627],[100.4427949,1.379681],[100.4387379,1.3783809],[100.4365255,1.3793011],[100.4298133,1.3733714],[100.4268963,1.3740972],[100.4300335,1.382033],[100.4274285,1.3822611],[100.4205643,1.3783072],[100.4171005,1.3819863],[100.4105479,1.3826084],[100.4082136,1.3845139],[100.4013183,1.3829701],[100.3735466,1.3947524],[100.3522835,1.4107315],[100.3425599,1.423886],[100.342443,1.4316472],[100.3356987,1.4372713],[100.328192,1.436596],[100.317641,1.441386],[100.2874115,1.4608101],[100.27716,1.463649],[100.275602,1.469423],[100.271845,1.471782],[100.277201,1.474738]]]}}],"land_only":true,"land_clip_source":"Natural Earth 1:10m land polygons; original administrative boundaries from OpenStreetMap contributors via Nominatim lookup"}